[
  {
    "OBJECT_NAME": "STARLINK-35094",
    "OBJECT_ID": "25191S",
    "EPOCH": "2025-11-11T05:35:47.496768",
    "MEAN_MOTION": 15.05660205,
    "ECCENTRICITY": 0.0002953,
    "INCLINATION": 97.6019,
    "RA_OF_ASC_NODE": 184.7403,
    "ARG_OF_PERICENTER": 88.2798,
    "MEAN_ANOMALY": 271.8767,
    "EPHEMERIS_TYPE": 0,
    "CLASSIFICATION_TYPE": "U",
    "NORAD_CAT_ID": 65395,
    "ELEMENT_SET_NO": 999,
    "REV_AT_EPOCH": 1245,
    "BSTAR": 0.00052247,
    "MEAN_MOTION_DOT": 7.488e-05,
    "MEAN_MOTION_DDOT": 0.0,
    "TLE_LINE1": "1 65395U 25191S   25315.23318862  .00007488  00000+0  52247-3 0  9994",
    "TLE_LINE2": "2 65395  97.6019 184.7403 0002953  88.2798 271.8767 15.05660205 12450",
    "COMMENT": "Grouped by shell and plane from TLE"
  },
  {
    "OBJECT_NAME": "STARLINK-34811",
    "OBJECT_ID": "25191T",
    "EPOCH": "2025-11-11T04:20:01.116672",
    "MEAN_MOTION": 15.05661092,
    "ECCENTRICITY": 0.0002096,
    "INCLINATION": 97.6012,
    "RA_OF_ASC_NODE": 184.6565,
    "ARG_OF_PERICENTER": 88.524,
    "MEAN_ANOMALY": 271.6227,
    "EPHEMERIS_TYPE": 0,
    "CLASSIFICATION_TYPE": "U",
    "NORAD_CAT_ID": 65396,
    "ELEMENT_SET_NO": 999,
    "REV_AT_EPOCH": 1243,
    "BSTAR": 0.0008395599999999999,
    "MEAN_MOTION_DOT": 0.00012078,
    "MEAN_MOTION_DDOT": 0.0,
    "TLE_LINE1": "1 65396U 25191T   25315.18056848  .00012078  00000+0  83956-3 0  9994",
    "TLE_LINE2": "2 65396  97.6012 184.6565 0002096  88.5240 271.6227 15.05661092 12437",
    "COMMENT": "Grouped by shell and plane from TLE"
  },
  {
    "OBJECT_NAME": "STARLINK-34940",
    "OBJECT_ID": "25191U",
    "EPOCH": "2025-11-11T05:11:52.237248",
    "MEAN_MOTION": 15.05662192,
    "ECCENTRICITY": 0.0002861,
    "INCLINATION": 97.6023,
    "RA_OF_ASC_NODE": 184.7641,
    "ARG_OF_PERICENTER": 79.9327,
    "MEAN_ANOMALY": 280.2223,
    "EPHEMERIS_TYPE": 0,
    "CLASSIFICATION_TYPE": "U",
    "NORAD_CAT_ID": 65397,
    "ELEMENT_SET_NO": 999,
    "REV_AT_EPOCH": 1244,
    "BSTAR": 0.00021127000000000003,
    "MEAN_MOTION_DOT": 2.99e-05,
    "MEAN_MOTION_DDOT": 0.0,
    "TLE_LINE1": "1 65397U 25191U   25315.21657682  .00002990  00000+0  21127-3 0  9996",
    "TLE_LINE2": "2 65397  97.6023 184.7641 0002861  79.9327 280.2223 15.05662192 12441",
    "COMMENT": "Grouped by shell and plane from TLE"
  },
  {
    "OBJECT_NAME": "STARLINK-34931",
    "OBJECT_ID": "25191V",
    "EPOCH": "2025-11-11T04:12:04.115232",
    "MEAN_MOTION": 15.05663836,
    "ECCENTRICITY": 0.0002267,
    "INCLINATION": 97.6031,
    "RA_OF_ASC_NODE": 184.6642,
    "ARG_OF_PERICENTER": 85.9052,
    "MEAN_ANOMALY": 274.2434,
    "EPHEMERIS_TYPE": 0,
    "CLASSIFICATION_TYPE": "U",
    "NORAD_CAT_ID": 65398,
    "ELEMENT_SET_NO": 999,
    "REV_AT_EPOCH": 1243,
    "BSTAR": 0.0007632,
    "MEAN_MOTION_DOT": 0.00010973,
    "MEAN_MOTION_DDOT": 0.0,
    "TLE_LINE1": "1 65398U 25191V   25315.17504763  .00010973  00000+0  76320-3 0  9998",
    "TLE_LINE2": "2 65398  97.6031 184.6642 0002267  85.9052 274.2434 15.05663836 12435",
    "COMMENT": "Grouped by shell and plane from TLE"
  },
  {
    "OBJECT_NAME": "STARLINK-34836",
    "OBJECT_ID": "25191W",
    "EPOCH": "2025-11-11T05:19:51.854880",
    "MEAN_MOTION": 15.0556406,
    "ECCENTRICITY": 0.0001828,
    "INCLINATION": 97.6023,
    "RA_OF_ASC_NODE": 184.7563,
    "ARG_OF_PERICENTER": 77.4896,
    "MEAN_ANOMALY": 282.6535,
    "EPHEMERIS_TYPE": 0,
    "CLASSIFICATION_TYPE": "U",
    "NORAD_CAT_ID": 65399,
    "ELEMENT_SET_NO": 999,
    "REV_AT_EPOCH": 1244,
    "BSTAR": 0.0,
    "MEAN_MOTION_DOT": -0.00041911,
    "MEAN_MOTION_DDOT": 0.0,
    "TLE_LINE1": "1 65399U 25191W   25315.22212795 -.00041911  00000+0 -29242-2 0  9994",
    "TLE_LINE2": "2 65399  97.6023 184.7563 0001828  77.4896 282.6535 15.05564060 12449",
    "COMMENT": "Grouped by shell and plane from TLE"
  },
  {
    "OBJECT_NAME": "STARLINK-34876",
    "OBJECT_ID": "25191X",
    "EPOCH": "2025-11-11T04:43:58.128384",
    "MEAN_MOTION": 15.05668488,
    "ECCENTRICITY": 0.0002754,
    "INCLINATION": 97.6023,
    "RA_OF_ASC_NODE": 184.7901,
    "ARG_OF_PERICENTER": 93.9045,
    "MEAN_ANOMALY": 266.2496,
    "EPHEMERIS_TYPE": 0,
    "CLASSIFICATION_TYPE": "U",
    "NORAD_CAT_ID": 65400,
    "ELEMENT_SET_NO": 999,
    "REV_AT_EPOCH": 1244,
    "BSTAR": 0.00030712000000000003,
    "MEAN_MOTION_DOT": 4.376e-05,
    "MEAN_MOTION_DDOT": 0.0,
    "TLE_LINE1": "1 65400U 25191X   25315.19720056  .00004376  00000+0  30712-3 0  9994",
    "TLE_LINE2": "2 65400  97.6023 184.7901 0002754  93.9045 266.2496 15.05668488 12449",
    "COMMENT": "Grouped by shell and plane from TLE"
  },
  {
    "OBJECT_NAME": "STARLINK-34909",
    "OBJECT_ID": "25191Y",
    "EPOCH": "2025-11-11T05:03:53.595072",
    "MEAN_MOTION": 15.05668667,
    "ECCENTRICITY": 0.0002836,
    "INCLINATION": 97.5964,
    "RA_OF_ASC_NODE": 184.7775,
    "ARG_OF_PERICENTER": 90.1626,
    "MEAN_ANOMALY": 269.9926,
    "EPHEMERIS_TYPE": 0,
    "CLASSIFICATION_TYPE": "U",
    "NORAD_CAT_ID": 65401,
    "ELEMENT_SET_NO": 999,
    "REV_AT_EPOCH": 1245,
    "BSTAR": 0.00093806,
    "MEAN_MOTION_DOT": 0.00013508,
    "MEAN_MOTION_DDOT": 0.0,
    "TLE_LINE1": "1 65401U 25191Y   25315.21103698  .00013508  00000+0  93806-3 0  9995",
    "TLE_LINE2": "2 65401  97.5964 184.7775 0002836  90.1626 269.9926 15.05668667 12455",
    "COMMENT": "Grouped by shell and plane from TLE"
  },
  {
    "OBJECT_NAME": "STARLINK-34848",
    "OBJECT_ID": "25191Z",
    "EPOCH": "2025-11-11T04:55:55.244928",
    "MEAN_MOTION": 15.05648112,
    "ECCENTRICITY": 0.000238,
    "INCLINATION": 97.6038,
    "RA_OF_ASC_NODE": 184.7772,
    "ARG_OF_PERICENTER": 76.5564,
    "MEAN_ANOMALY": 283.5928,
    "EPHEMERIS_TYPE": 0,
    "CLASSIFICATION_TYPE": "U",
    "NORAD_CAT_ID": 65402,
    "ELEMENT_SET_NO": 999,
    "REV_AT_EPOCH": 1244,
    "BSTAR": 0.00083337,
    "MEAN_MOTION_DOT": 0.00011984,
    "MEAN_MOTION_DDOT": 0.0,
    "TLE_LINE1": "1 65402U 25191Z   25315.20550052  .00011984  00000+0  83337-3 0  9999",
    "TLE_LINE2": "2 65402  97.6038 184.7772 0002380  76.5564 283.5928 15.05648112 12445",
    "COMMENT": "Grouped by shell and plane from TLE"
  }
]